{
  "type": "FeatureCollection",
  "features": [
    {
      "type": "Feature",
      "properties": {
        "norad_id": 66919,
        "name": "HULIANWANG DIGUI-109",
        "group": "last-30-days",
        "lat": -40.665697853130574,
        "lon": -61.298313885620956,
        "alt_km": 885.1019992446809,
        "timestamp": "2025-12-23T16:57:11.063085+00:00",
        "meta_object_name": "HULIANWANG DIGUI-109",
        "meta_object_id": "2025-285E",
        "meta_epoch": "2025-12-23T07:16:44.859072",
        "meta_mean_motion": 14.03727249,
        "meta_eccentricity": 0.0007911,
        "meta_inclination": 50.0075,
        "meta_ra_of_asc_node": 74.196,
        "meta_arg_of_pericenter": 327.6524,
        "meta_mean_anomaly": 32.3894,
        "meta_ephemeris_type": 0,
        "meta_classification_type": "U",
        "meta_norad_cat_id": 66919,
        "meta_element_set_no": 999,
        "meta_rev_at_epoch": 239,
        "meta_bstar": 0.00012738944,
        "meta_mean_motion_dot": 5e-07,
        "meta_mean_motion_ddot": 0,
        "tle_line1": "1 66919U 25285E   25357.30329698  .00000050  00000+0  12739-3 0  9994",
        "tle_line2": "2 66919  50.0075  74.1960 0007911 327.6524  32.3894 14.03727249  2396"
      },
      "geometry": {
        "type": "Point",
        "coordinates": [
          -61.298313885620956,
          -40.665697853130574
        ]
      }
    },
    {
      "type": "Feature",
      "properties": {
        "norad_id": 66920,
        "name": "HULIANWANG DIGUI-110",
        "group": "last-30-days",
        "lat": -42.66017487628259,
        "lon": -56.787842307673856,
        "alt_km": 884.8410243341086,
        "timestamp": "2025-12-23T16:57:11.063096+00:00",
        "meta_object_name": "HULIANWANG DIGUI-110",
        "meta_object_id": "2025-285F",
        "meta_epoch": "2025-12-23T07:15:37.424736",
        "meta_mean_motion": 14.03683422,
        "meta_eccentricity": 0.00056191,
        "meta_inclination": 50.0119,
        "meta_ra_of_asc_node": 74.1987,
        "meta_arg_of_pericenter": 324.7806,
        "meta_mean_anomaly": 35.2727,
        "meta_ephemeris_type": 0,
        "meta_classification_type": "U",
        "meta_norad_cat_id": 66920,
        "meta_element_set_no": 999,
        "meta_rev_at_epoch": 239,
        "meta_bstar": 0.00011180537,
        "meta_mean_motion_dot": 2.5e-07,
        "meta_mean_motion_ddot": 0,
        "tle_line1": "1 66920U 25285F   25357.30251649  .00000025  00000+0  11181-3 0  9998",
        "tle_line2": "2 66920  50.0119  74.1987 0005619 324.7806  35.2727 14.03683422  2391"
      },
      "geometry": {
        "type": "Point",
        "coordinates": [
          -56.787842307673856,
          -42.66017487628259
        ]
      }
    },
    {
      "type": "Feature",
      "properties": {
        "norad_id": 66921,
        "name": "HULIANWANG DIGUI-111",
        "group": "last-30-days",
        "lat": -44.468062571462916,
        "lon": -51.98129182318804,
        "alt_km": 884.9961458163907,
        "timestamp": "2025-12-23T16:57:11.063106+00:00",
        "meta_object_name": "HULIANWANG DIGUI-111",
        "meta_object_id": "2025-285G",
        "meta_epoch": "2025-12-23T07:14:28.729824",
        "meta_mean_motion": 14.03632972,
        "meta_eccentricity": 0.00066992,
        "meta_inclination": 50.0124,
        "meta_ra_of_asc_node": 74.1979,
        "meta_arg_of_pericenter": 328.5764,
        "meta_mean_anomaly": 31.474,
        "meta_ephemeris_type": 0,
        "meta_classification_type": "U",
        "meta_norad_cat_id": 66921,
        "meta_element_set_no": 999,
        "meta_rev_at_epoch": 239,
        "meta_bstar": 0.00011450788,
        "meta_mean_motion_dot": 2.9e-07,
        "meta_mean_motion_ddot": 0,
        "tle_line1": "1 66921U 25285G   25357.30172141  .00000029  00000+0  11451-3 0  9992",
        "tle_line2": "2 66921  50.0124  74.1979 0006699 328.5764  31.4740 14.03632972  2390"
      },
      "geometry": {
        "type": "Point",
        "coordinates": [
          -51.98129182318804,
          -44.468062571462916
        ]
      }
    },
    {
      "type": "Feature",
      "properties": {
        "norad_id": 66922,
        "name": "HULIANWANG DIGUI-112",
        "group": "last-30-days",
        "lat": -46.61641895812449,
        "lon": -44.83396547237037,
        "alt_km": 885.4174486816173,
        "timestamp": "2025-12-23T16:57:11.063117+00:00",
        "meta_object_name": "HULIANWANG DIGUI-112",
        "meta_object_id": "2025-285H",
        "meta_epoch": "2025-12-23T07:12:56.364768",
        "meta_mean_motion": 14.03662978,
        "meta_eccentricity": 0.00065212,
        "meta_inclination": 50.0096,
        "meta_ra_of_asc_node": 74.1846,
        "meta_arg_of_pericenter": 339.2312,
        "meta_mean_anomaly": 20.8326,
        "meta_ephemeris_type": 0,
        "meta_classification_type": "U",
        "meta_norad_cat_id": 66922,
        "meta_element_set_no": 999,
        "meta_rev_at_epoch": 239,
        "meta_bstar": 0.0001238419,
        "meta_mean_motion_dot": 4.4e-07,
        "meta_mean_motion_ddot": 0,
        "tle_line1": "1 66922U 25285H   25357.30065237  .00000044  00000+0  12384-3 0  9993",
        "tle_line2": "2 66922  50.0096  74.1846 0006521 339.2312  20.8326 14.03662978  2395"
      },
      "geometry": {
        "type": "Point",
        "coordinates": [
          -44.83396547237037,
          -46.61641895812449
        ]
      }
    },
    {
      "type": "Feature",
      "properties": {
        "norad_id": 66923,
        "name": "HULIANWANG DIGUI-113",
        "group": "last-30-days",
        "lat": -48.44470802923114,
        "lon": -36.2394995937063,
        "alt_km": 884.6248468173571,
        "timestamp": "2025-12-23T16:57:11.063129+00:00",
        "meta_object_name": "HULIANWANG DIGUI-113",
        "meta_object_id": "2025-285J",
        "meta_epoch": "2025-12-23T07:11:13.456320",
        "meta_mean_motion": 14.03700887,
        "meta_eccentricity": 0.00051278,
        "meta_inclination": 50.0095,
        "meta_ra_of_asc_node": 74.18,
        "meta_arg_of_pericenter": 333.7511,
        "meta_mean_anomaly": 26.3133,
        "meta_ephemeris_type": 0,
        "meta_classification_type": "U",
        "meta_norad_cat_id": 66923,
        "meta_element_set_no": 999,
        "meta_rev_at_epoch": 239,
        "meta_bstar": 0.00011699168,
        "meta_mean_motion_dot": 3.4e-07,
        "meta_mean_motion_ddot": 0,
        "tle_line1": "1 66923U 25285J   25357.29946130  .00000034  00000+0  11699-3 0  9999",
        "tle_line2": "2 66923  50.0095  74.1800 0005127 333.7511  26.3133 14.03700887  2395"
      },
      "geometry": {
        "type": "Point",
        "coordinates": [
          -36.2394995937063,
          -48.44470802923114
        ]
      }
    },
    {
      "type": "Feature",
      "properties": {
        "norad_id": 66924,
        "name": "CZ-8A R/B",
        "group": "last-30-days",
        "lat": 28.95988282064245,
        "lon": 97.1509354160569,
        "alt_km": 809.0312432981045,
        "timestamp": "2025-12-23T16:57:11.063139+00:00",
        "meta_object_name": "CZ-8A R/B",
        "meta_object_id": "2025-285K",
        "meta_epoch": "2025-12-23T05:01:55.865568",
        "meta_mean_motion": 14.30505767,
        "meta_eccentricity": 0.01192482,
        "meta_inclination": 50.0083,
        "meta_ra_of_asc_node": 71.5871,
        "meta_arg_of_pericenter": 143.6553,
        "meta_mean_anomaly": 217.2535,
        "meta_ephemeris_type": 0,
        "meta_classification_type": "U",
        "meta_norad_cat_id": 66924,
        "meta_element_set_no": 999,
        "meta_rev_at_epoch": 242,
        "meta_bstar": 5.5302115e-05,
        "meta_mean_motion_dot": -1e-07,
        "meta_mean_motion_ddot": 0,
        "tle_line1": "1 66924U 25285K   25357.20967437 -.00000010  00000+0  55302-4 0  9999",
        "tle_line2": "2 66924  50.0083  71.5871 0119248 143.6553 217.2535 14.30505767  2427"
      },
      "geometry": {
        "type": "Point",
        "coordinates": [
          97.1509354160569,
          28.95988282064245
        ]
      }
    },
    {
      "type": "Feature",
      "properties": {
        "norad_id": 66925,
        "name": "STARLINK-35945",
        "group": "last-30-days",
        "lat": 21.650060774762625,
        "lon": 12.896655435661883,
        "alt_km": 358.1469268796691,
        "timestamp": "2025-12-23T16:57:11.063149+00:00",
        "meta_object_name": "STARLINK-35945",
        "meta_object_id": "2025-286A",
        "meta_epoch": "2025-12-23T06:00:00.999648",
        "meta_mean_motion": 15.71263305,
        "meta_eccentricity": 9.74e-05,
        "meta_inclination": 53.159,
        "meta_ra_of_asc_node": 357.8349,
        "meta_arg_of_pericenter": 82.2238,
        "meta_mean_anomaly": 243.994,
        "meta_ephemeris_type": 0,
        "meta_classification_type": "U",
        "meta_norad_cat_id": 66925,
        "meta_element_set_no": 999,
        "meta_rev_at_epoch": 368,
        "meta_bstar": -0.017110669,
        "meta_mean_motion_dot": -0.01957553,
        "meta_mean_motion_ddot": 0,
        "tle_line1": "1 66925U 25286A   25357.25001157 -.01957553  00000+0 -17111-1 0  9992",
        "tle_line2": "2 66925  53.1590 357.8349 0000974  82.2238 243.9940 15.71263305  3688"
      },
      "geometry": {
        "type": "Point",
        "coordinates": [
          12.896655435661883,
          21.650060774762625
        ]
      }
    }
  ]
}